NORAD_CAT_ID,OBJECT_NAME,OBJECT_TYPE,EPOCH,MEAN_MOTION,ECCENTRICITY,INCLINATION,RA_OF_ASC_NODE,ARG_OF_PERICENTER,MEAN_ANOMALY,BSTAR,MEAN_MOTION_DOT,MEAN_MOTION_DDOT,TLE_LINE0,TLE_LINE1,TLE_LINE2,SEMIMAJOR_AXIS,PERIOD,APOGEE,PERIGEE,DECAYED
49414.0,STARLINK-3146,PAYLOAD,2024-07-10 02:17:25,15.08840504,0.000148,53.2183,76.7172,105.4923,254.6233,-1.1756e-06,-3.07e-06,0.0,0 STARLINK-3146,1 49414U 21104G   24192.09543096 -.00000307  00000-0 -11756-5 0  9991,2 49414  53.2183  76.7172 0001480 105.4923 254.6233 15.08840504146903,6917.879,95.438,540.768,538.72,0.0
49414.0,STARLINK-3146,PAYLOAD,2024-07-10 21:22:02,15.08840391,0.0001514,53.2182,73.1502,102.5386,257.5775,4.1544e-06,-2.22e-06,0.0,0 STARLINK-3146,1 49414U 21104G   24192.89031157 -.00000222  00000-0  41544-5 0  9992,2 49414  53.2182  73.1502 0001514 102.5386 257.5775 15.08840391147020,6917.879,95.438,540.792,538.697,0.0
49414.0,STARLINK-3146,PAYLOAD,2024-07-10 22:57:25,15.08842279,0.0001447,53.2181,72.8531,99.7793,260.3362,4.2384e-06,-2.21e-06,0.0,0 STARLINK-3146,1 49414U 21104G   24192.95655044 -.00000221  00000-0  42384-5 0  9998,2 49414  53.2181  72.8531 0001447  99.7793 260.3362 15.08842279148135,6917.873,95.437,540.739,538.737,0.0
49414.0,STARLINK-3146,PAYLOAD,2024-07-11 16:26:40,15.08837506,0.0001371,53.2181,69.5817,95.969,264.1459,6.6151e-05,7.65e-06,0.0,0 STARLINK-3146,1 49414U 21104G   24193.68519301  .00000765  00000-0  66151-4 0  9993,2 49414  53.2181  69.5817 0001371  95.9690 264.1459 15.08837506147141,6917.888,95.438,540.701,538.805,0.0
49414.0,STARLINK-3146,PAYLOAD,2024-07-12 08:20:32,15.0883727,0.0001507,53.2186,66.6081,80.1452,279.971,5.5794e-05,6e-06,0.0,0 STARLINK-3146,1 49414U 21104G   24194.34759572  .00000600  00000-0  55794-4 0  9992,2 49414  53.2186  66.6081 0001507  80.1452 279.9710 15.08837270148345,6917.889,95.438,540.796,538.711,0.0
49414.0,STARLINK-3146,PAYLOAD,2024-07-12 22:39:00,15.08853393,0.000166,53.2178,63.9376,129.8908,230.223,-0.00016858,-2.971e-05,0.0,0 STARLINK-3146,1 49414U 21104G   24194.94375195 -.00002971  00000-0 -16858-3 0  9995,2 49414  53.2178  63.9376 0001660 129.8908 230.2230 15.08853393147339,6917.839,95.437,540.853,538.556,0.0
49414.0,STARLINK-3146,PAYLOAD,2024-07-13 08:11:19,15.08845698,0.0001352,53.2179,62.1526,89.6705,270.4442,1.7848e-05,-4e-08,0.0,0 STARLINK-3146,1 49414U 21104G   24195.34119243 -.00000004  00000-0  17848-4 0  9995,2 49414  53.2179  62.1526 0001352  89.6705 270.4442 15.08845698148492,6917.863,95.437,540.663,538.793,0.0
49414.0,STARLINK-3146,PAYLOAD,2024-07-13 20:54:24,15.0883937,0.0001362,53.2183,59.7727,87.7663,272.3485,2.3135e-05,8e-07,0.0,0 STARLINK-3146,1 49414U 21104G   24195.87111890  .00000080  00000-0  23135-4 0  9992,2 49414  53.2183  59.7727 0001362  87.7663 272.3485 15.08839370148572,6917.882,95.438,540.69,538.805,0.0
49414.0,STARLINK-3146,PAYLOAD,2024-07-13 22:29:47,15.08841519,0.0001438,53.219,59.4713,82.9606,277.155,3.3137e-05,2.39e-06,0.0,0 STARLINK-3146,1 49414U 21104G   24195.93735728  .00000239  00000-0  33137-4 0  9990,2 49414  53.2190  59.4713 0001438  82.9606 277.1550 15.08841519147483,6917.876,95.437,540.736,538.746,0.0
49414.0,STARLINK-3146,PAYLOAD,2024-07-14 00:05:10,15.08846262,0.0001421,53.2193,59.1735,82.6708,277.4446,7.3936e-05,8.89e-06,0.0,0 STARLINK-3146,1 49414U 21104G   24196.00359312  .00000889  00000-0  73936-4 0  9992,2 49414  53.2193  59.1735 0001421  82.6708 277.4446 15.08846262148599,6917.861,95.437,540.709,538.743,0.0
49414.0,STARLINK-3146,PAYLOAD,2024-07-14 08:02:06,15.08839221,0.0001327,53.2182,57.6886,90.1453,269.9692,6.9385e-05,8.17e-06,0.0,0 STARLINK-3146,1 49414U 21104G   24196.33479699  .00000817  00000-0  69385-4 0  9993,2 49414  53.2182  57.6886 0001327  90.1453 269.9692 15.08839221148645,6917.883,95.438,540.666,538.83,0.0
49414.0,STARLINK-3146,PAYLOAD,2024-07-14 20:45:11,15.08848412,0.0001247,53.217,55.3113,87.9727,272.1407,9.1766e-05,1.173e-05,0.0,0 STARLINK-3146,1 49414U 21104G   24196.86471097  .00001173  00000-0  91766-4 0  9999,2 49414  53.2170  55.3113 0001247  87.9727 272.1407 15.08848412148720,6917.855,95.437,540.582,538.857,0.0
49414.0,STARLINK-3146,PAYLOAD,2024-07-14 22:20:33,15.08851337,0.0001293,53.2176,55.0141,87.7974,272.3166,0.00011177,1.492e-05,0.0,0 STARLINK-3146,1 49414U 21104G   24196.93094845  .00001492  00000-0  11177-3 0  9990,2 49414  53.2176  55.0141 0001293  87.7974 272.3166 15.08851337147630,6917.846,95.437,540.605,538.816,0.0
49414.0,STARLINK-3146,PAYLOAD,2024-07-15 07:52:53,15.08845197,0.0001323,53.2192,53.229,82.4917,277.6226,5.7009e-05,6.2e-06,0.0,0 STARLINK-3146,1 49414U 21104G   24197.32839258  .00000620  00000-0  57009-4 0  9996,2 49414  53.2192  53.2290 0001323  82.4917 277.6226 15.08845197147694,6917.865,95.437,540.645,538.814,0.0
49414.0,STARLINK-3146,PAYLOAD,2024-07-15 20:35:58,15.08842128,0.0001388,53.2181,50.8465,99.4998,260.6151,-2.1038e-06,-3.21e-06,0.0,0 STARLINK-3146,1 49414U 21104G   24197.85831573 -.00000321  00000-0 -21038-5 0  9990,2 49414  53.2181  50.8465 0001388  99.4998 260.6151 15.08842128148878,6917.874,95.437,540.699,538.779,0.0
49414.0,STARLINK-3146,PAYLOAD,2024-07-16 07:43:40,15.0884323,0.0001462,53.2189,48.7639,100.0142,260.1015,1.4124e-05,-6.3e-07,0.0,0 STARLINK-3146,1 49414U 21104G   24198.32199348 -.00000063  00000-0  14124-4 0  9999,2 49414  53.2189  48.7639 0001462 100.0142 260.1015 15.08843230147843,6917.871,95.437,540.747,538.724,0.0
49414.0,STARLINK-3146,PAYLOAD,2024-07-16 20:26:45,15.08834342,0.0001661,53.2189,46.385,111.7725,248.3444,0.00021866,3.193e-05,0.0,0 STARLINK-3146,1 49414U 21104G   24198.85191118  .00003193  00000-0  21866-3 0  9990,2 49414  53.2189  46.3850 0001661 111.7725 248.3444 15.08834342147926,6917.898,95.438,540.912,538.614,0.0
49414.0,STARLINK-3146,PAYLOAD,2024-07-16 23:37:30,15.08849063,0.0001737,53.22,45.7889,114.7872,245.3301,8.4039e-05,1.05e-05,0.0,0 STARLINK-3146,1 49414U 21104G   24198.98438604  .00001050  00000-0  84039-4 0  9990,2 49414  53.2200  45.7889 0001737 114.7872 245.3301 15.08849063149045,6917.853,95.437,540.919,538.516,0.0
49414.0,STARLINK-3146,PAYLOAD,2024-07-17 20:17:33,15.08834314,0.0001503,53.2189,41.9248,103.0395,257.0765,-1.3038e-05,-4.95e-06,0.0,0 STARLINK-3146,1 49414U 21104G   24199.84552307 -.00000495  00000-0 -13038-4 0  9998,2 49414  53.2189  41.9248 0001503 103.0395 257.0765 15.08834314149171,6917.898,95.438,540.803,538.723,0.0
49414.0,STARLINK-3146,PAYLOAD,2024-07-17 23:28:19,15.08834301,0.0001523,53.2192,41.3297,102.8759,257.2404,-3.6337e-06,-3.46e-06,0.0,0 STARLINK-3146,1 49414U 21104G   24199.97800340 -.00000346  00000-0 -36337-5 0  9998,2 49414  53.2192  41.3297 0001523 102.8759 257.2404 15.08834301148094,6917.898,95.438,540.816,538.709,0.0
49414.0,STARLINK-3146,PAYLOAD,2024-07-18 18:32:57,15.08836895,0.0001484,53.2187,37.7615,109.9946,250.1206,9.0123e-06,-1.45e-06,0.0,0 STARLINK-3146,1 49414U 21104G   24200.77288510 -.00000145  00000-0  90123-5 0  9997,2 49414  53.2187  37.7615 0001484 109.9946 250.1206 15.08836895148219,6917.89,95.438,540.781,538.728,0.0
49414.0,STARLINK-3146,PAYLOAD,2024-07-18 23:19:06,15.08845009,0.0001503,53.2188,36.8692,120.3616,239.7525,-8.3725e-05,-1.62e-05,0.0,0 STARLINK-3146,1 49414U 21104G   24200.97160237 -.00001620  00000-0 -83725-4 0  9993,2 49414  53.2188  36.8692 0001503 120.3616 239.7525 15.08845009149347,6917.865,95.437,540.77,538.69,0.0
49414.0,STARLINK-3146,PAYLOAD,2024-07-19 05:40:38,15.08848557,0.0001321,53.2193,35.6814,104.645,255.4688,-5.3045e-06,-3.72e-06,0.0,0 STARLINK-3146,1 49414U 21104G   24201.23655863 -.00000372  00000-0 -53045-5 0  9993,2 49414  53.2193  35.6814 0001321 104.6450 255.4688 15.08848557148283,6917.854,95.437,540.633,538.805,0.0
49414.0,STARLINK-3146,PAYLOAD,2024-07-19 19:59:06,15.08853702,0.0001331,53.2178,33.0139,111.4006,248.7128,0.00028857,4.309e-05,0.0,0 STARLINK-3146,1 49414U 21104G   24201.83271691  .00004309  00000-0  28857-3 0  9995,2 49414  53.2178  33.0139 0001331 111.4006 248.7128 15.08853702149476,6917.839,95.437,540.624,538.783,0.0
49414.0,STARLINK-3146,PAYLOAD,2024-07-20 05:31:25,15.08853404,0.0001055,53.2174,31.2211,60.5157,299.5941,0.00027402,4.077e-05,0.0,0 STARLINK-3146,1 49414U 21104G   24202.23015351  .00004077  00000-0  27402-3 0  9996,2 49414  53.2174  31.2211 0001055  60.5157 299.5941 15.08853404148438,6917.839,95.437,540.434,538.975,0.0
49414.0,STARLINK-3146,PAYLOAD,2024-07-20 19:49:54,15.08836132,0.0001446,53.2188,28.5458,61.7258,298.388,-4.847e-05,-1.059e-05,0.0,0 STARLINK-3146,1 49414U 21104G   24202.82632572 -.00001059  00000-0 -48470-4 0  9999,2 49414  53.2188  28.5458 0001446  61.7258 298.3880 15.08836132149624,6917.892,95.438,540.758,538.757,0.0
49414.0,STARLINK-3146,PAYLOAD,2024-07-20 23:00:40,15.08843157,9.96e-05,53.2171,27.9507,71.1175,288.9925,3.58e-05,2.82e-06,0.0,0 STARLINK-3146,1 49414U 21104G   24202.95880106  .00000282  00000-0  35800-4 0  9999,2 49414  53.2171  27.9507 0000996  71.1175 288.9925 15.08843157149648,6917.871,95.437,540.425,539.047,0.0
49414.0,STARLINK-3146,PAYLOAD,2024-07-21 19:40:41,15.08844306,0.0001796,53.2195,24.0816,44.5468,315.5669,8.0863e-06,-1.59e-06,0.0,0 STARLINK-3146,1 49414U 21104G   24203.81992470 -.00000159  00000-0  80863-5 0  9997,2 49414  53.2195  24.0816 0001796  44.5468 315.5669 15.08844306148674,6917.867,95.437,540.975,538.49,0.0
49414.0,STARLINK-3146,PAYLOAD,2024-07-24 11:16:07,15.08840862,0.0001588,53.2172,12.19,105.08,255.0367,0.00010624,1.403e-05,0.0,0 STARLINK-3146,1 49414U 21104G   24206.46952918  .00001403  00000-0  10624-3 0  9992,2 49414  53.2172  12.1900 0001588 105.0800 255.0367 15.08840862150177,6917.878,95.438,540.841,538.644,0.0
49414.0,STARLINK-3146,PAYLOAD,2024-07-25 20:39:13,15.08844161,0.000124,53.2191,5.9512,76.4499,283.6632,0.00012533,1.708e-05,0.0,0 STARLINK-3146,1 49414U 21104G   24207.86056732  .00001708  00000-0  12533-3 0  9995,2 49414  53.2191   5.9512 0001240  76.4499 283.6632 15.08844161150388,6917.868,95.437,540.59,538.875,0.0
